<?xml version="1.0" encoding="UTF-8"?>
<kml xmlns="http://www.opengis.net/kml/2.2">
  <Document>
    <name>Jachtseizoen</name>
    <description/>
    <Style id="poly-000000-1200-77-nodesc-normal">
      <LineStyle>
        <color>ff000000</color>
        <width>1.2</width>
      </LineStyle>
      <PolyStyle>
        <color>4d000000</color>
        <fill>1</fill>
        <outline>1</outline>
      </PolyStyle>
      <BalloonStyle>
        <text><![CDATA[<h3>$[name]</h3>]]></text>
      </BalloonStyle>
    </Style>
    <Style id="poly-000000-1200-77-nodesc-highlight">
      <LineStyle>
        <color>ff000000</color>
        <width>1.8</width>
      </LineStyle>
      <PolyStyle>
        <color>4d000000</color>
        <fill>1</fill>
        <outline>1</outline>
      </PolyStyle>
      <BalloonStyle>
        <text><![CDATA[<h3>$[name]</h3>]]></text>
      </BalloonStyle>
    </Style>
    <StyleMap id="poly-000000-1200-77-nodesc">
      <Pair>
        <key>normal</key>
        <styleUrl>#poly-000000-1200-77-nodesc-normal</styleUrl>
      </Pair>
      <Pair>
        <key>highlight</key>
        <styleUrl>#poly-000000-1200-77-nodesc-highlight</styleUrl>
      </Pair>
    </StyleMap>
    <Folder>
      <name>Naamloze laag</name>
      <Placemark>
        <name>Speelveld</name>
        <styleUrl>#poly-000000-1200-77-nodesc</styleUrl>
        <Polygon>
          <outerBoundaryIs>
            <LinearRing>
              <tessellate>1</tessellate>
              <coordinates>
                4.5297348,50.8179458,0
                4.5325961,50.814347,0
                4.5322955,50.8117937,0
                4.5331183,50.8110707,0
                4.5327726,50.808964,0
                4.5364563,50.8086826,0
                4.5430712,50.8114303,0
                4.5441302,50.8091214,0
                4.5459124,50.8076038,0
                4.5517889,50.8054338,0
                4.5594816,50.8086601,0
                4.5692398,50.8127898,0
                4.5713194,50.8144517,0
                4.5678099,50.8162468,0
                4.5656969,50.8166803,0
                4.5679567,50.8182965,0
                4.5727463,50.8180373,0
                4.5801956,50.8201443,0
                4.5781353,50.826059,0
                4.5745707,50.8245544,0
                4.5689767,50.8236051,0
                4.5633913,50.8214704,0
                4.5628816,50.8223228,0
                4.560763,50.8238282,0
                4.5608806,50.824801,0
                4.5576909,50.8296009,0
                4.5601868,50.830935,0
                4.5587938,50.832281,0
                4.5557636,50.831832,0
                4.5554038,50.8283516,0
                4.5535727,50.8271288,0
                4.5465255,50.8250644,0
                4.5416222,50.8246891,0
                4.5363472,50.8223753,0
                4.5368575,50.8197659,0
                4.5339736,50.8178769,0
                4.5318281,50.8185902,0
                4.5295886,50.8186714,0
                4.5297348,50.8179458,0
              </coordinates>
            </LinearRing>
          </outerBoundaryIs>
        </Polygon>
      </Placemark>
    </Folder>
  </Document>
</kml>
